     2.11           N: GPS NAV DATA                          RINEX VERSION / TYPE
portapack-pc                                                PGM / RUN BY / DATE
                                                            END OF HEADER
28 26  5 31 16  0  0.0-5.136779509485e-04 1.114131009672e-11 0.000000000000e+00
    1.580000000000e+02 6.343750000000e+00 4.713410550750e-09 2.469611863441e+00
    3.967434167862e-07 4.781167954206e-04 5.325302481651e-06 5.153583745956e+03
    5.760000000000e+04 0.000000000000e+00-1.732665669714e+00-6.705522537231e-08
    9.614660011010e-01 2.795937500000e+02-4.207643063166e-01-7.940688107055e-09
    1.742929689463e-10 1.000000000000e+00 2.421000000000e+03 0.000000000000e+00
    2.000000000000e+00 0.000000000000e+00-9.313225746155e-09 6.700000000000e+02
    0.000000000000e+00 4.000000000000e+00                                      
29 26  5 31 16  0  0.0-3.104605711997e-04 7.503331289627e-12 0.000000000000e+00
    4.400000000000e+01 1.298125000000e+02 4.336252050875e-09-1.908914779060e+00
    6.617978215218e-06 3.607587772422e-03 8.115544915199e-06 5.153718648911e+03
    5.760000000000e+04-4.097819328308e-08 4.601140991762e-01-3.539025783539e-08
    9.610621640282e-01 2.302500000000e+02 2.809789525046e+00-7.873542250353e-09
    1.800074980348e-10 1.000000000000e+00 2.421000000000e+03 0.000000000000e+00
    2.000000000000e+00 0.000000000000e+00-9.778887033463e-09 4.400000000000e+01
    5.041800000000e+04 4.000000000000e+00                                      
30 26  5 31 16  0  0.0 2.425163984299e-04 1.386979420204e-11 0.000000000000e+00
    3.100000000000e+01 8.031250000000e+00 5.366652114030e-09 1.436385697287e+00
    4.023313522339e-07 8.241137256846e-03 5.362555384636e-06 5.153701210022e+03
    5.760000000000e+04-1.583248376846e-07-1.718258274617e+00 1.676380634308e-08
    9.358306307478e-01 2.668125000000e+02-2.268816074211e+00-8.394992542279e-09
    9.750406143553e-11 1.000000000000e+00 2.421000000000e+03 0.000000000000e+00
    2.000000000000e+00 0.000000000000e+00 4.190951585770e-09 3.100000000000e+01
    5.041800000000e+04 4.000000000000e+00                                      
31 26  5 31 16  0  0.0-1.455051824450e-04 2.501110429876e-12 0.000000000000e+00
    7.200000000000e+01 5.500000000000e+00 4.882703574793e-09 6.282694255320e-01
    5.047768354416e-07 1.081970997620e-02 5.358830094337e-06 5.153598772049e+03
    5.760000000000e+04-2.235174179077e-07-1.683308263472e+00 5.774199962616e-08
    9.542648629276e-01 2.755937500000e+02 9.569083471193e-01-8.166411546995e-09
    7.107438942944e-11 1.000000000000e+00 2.421000000000e+03 0.000000000000e+00
    2.000000000000e+00 0.000000000000e+00-1.350417733192e-08 7.200000000000e+01
    0.000000000000e+00 4.000000000000e+00                                      
32 26  5 31 16  0  0.0 8.397269994020e-05 2.080469130306e-11 0.000000000000e+00
    6.100000000000e+01-4.471875000000e+01 4.111956997122e-09-1.158786280260e+00
   -2.343207597733e-06 9.389880462550e-03 1.043267548084e-05 5.153770658493e+03
    5.760000000000e+04 7.264316082001e-08-2.763360223948e+00 2.775341272354e-07
    9.691329762785e-01 1.844687500000e+02-1.977436009838e+00-7.674247903822e-09
    3.371569134991e-10 1.000000000000e+00 2.421000000000e+03 0.000000000000e+00
    2.000000000000e+00 0.000000000000e+00 9.313225746155e-10 6.100000000000e+01
    0.000000000000e+00 4.000000000000e+00                                      
 1 26  5 31 18  0  0.0 2.601845189929e-04-1.011812855722e-11 0.000000000000e+00
    3.900000000000e+01 2.653125000000e+01 4.918061957682e-09-1.952770576116e+00
    1.259148120880e-06 1.766637433320e-03-3.054738044739e-07 5.153609371185e+03
    6.480000000000e+04 1.117587089539e-08 1.508142942356e+00-6.146728992462e-08
    9.570979164328e-01 3.845625000000e+02 2.068354465209e-01-8.531784168042e-09
    1.400058263767e-10 1.000000000000e+00 2.421000000000e+03 0.000000000000e+00
    2.000000000000e+00 0.000000000000e+00-8.847564458847e-09 3.900000000000e+01
    0.000000000000e+00 4.000000000000e+00                                      
 2 26  5 31 18  0  0.0 1.097326166928e-04 7.503331289627e-12 0.000000000000e+00
    1.350000000000e+02 5.300000000000e+01 4.831986985939e-09-4.652380458206e-01
    2.641230821610e-06 1.682818506379e-02 6.053596735001e-07 5.153746084213e+03
    6.480000000000e+04-1.378357410431e-07 1.345900037453e+00-2.924352884293e-07
    9.621907365692e-01 3.704062500000e+02-7.602561680181e-01-8.657503476913e-09
    3.089414400796e-10 1.000000000000e+00 2.421000000000e+03 0.000000000000e+00
    2.800000000000e+00 0.000000000000e+00-1.722946763039e-08 1.350000000000e+02
    5.761800000000e+04 4.000000000000e+00 0.000000000000e+00 0.000000000000e+00
 3 26  5 31 18  0  0.0 4.408522509038e-04-1.637090463191e-11 0.000000000000e+00
    1.010000000000e+02-1.391875000000e+02 3.637294465619e-09 2.292519280881e+00
   -7.390975952148e-06 6.894956226461e-03 5.431473255157e-06 5.153586746216e+03
    6.480000000000e+04 1.862645149231e-08 2.498867596163e+00-8.009374141693e-08
    9.945681784767e-01 2.900000000000e+02 1.232218420237e+00-7.585673422739e-09
   -2.885834626820e-10 1.000000000000e+00 2.421000000000e+03 0.000000000000e+00
    2.000000000000e+00 0.000000000000e+00 1.396983861923e-09 1.010000000000e+02
    0.000000000000e+00 4.000000000000e+00                                      
 4 26  5 31 18  0  0.0 5.874270573258e-05 1.136868377216e-12 0.000000000000e+00
    7.200000000000e+01-4.465625000000e+01 3.974451434630e-09-1.040816436148e+00
   -2.400949597359e-06 3.757425583899e-03 1.029483973980e-05 5.153699350357e+03
    6.480000000000e+04 6.146728992462e-08-2.715895596707e+00-3.539025783539e-08
    9.718604597634e-01 1.878437500000e+02-2.880488236240e+00-7.528885070940e-09
    3.857303643162e-10 1.000000000000e+00 2.421000000000e+03 0.000000000000e+00
    2.000000000000e+00 0.000000000000e+00-4.656612873077e-09 8.400000000000e+02
    0.000000000000e+00 4.000000000000e+00                                      
 5 26  5 31 18  0  0.0-2.336101606488e-04-4.547473508865e-13 0.000000000000e+00
    5.600000000000e+01-1.140312500000e+02 4.099456473103e-09-4.213957324808e-01
   -5.826354026794e-06 5.603071302176e-03 5.055218935013e-06 5.153753423691e+03
    6.480000000000e+04-5.587935447693e-08 2.437948787838e+00-4.097819328308e-08
    9.809716627787e-01 2.906250000000e+02 1.444077954615e+00-8.004619138803e-09
   -2.500104139373e-10 1.000000000000e+00 2.421000000000e+03 0.000000000000e+00
    2.000000000000e+00 0.000000000000e+00-1.071020960808e-08 5.600000000000e+01
    5.761800000000e+04 4.000000000000e+00                                      
 6 26  5 31 18  0  0.0-5.971831269562e-04 4.774847184308e-12 0.000000000000e+00
    7.600000000000e+01 3.575000000000e+01 4.271249132159e-09-2.717828431869e+00
    1.968815922737e-06 3.707033582032e-03 7.040798664093e-07 5.153688814163e+03
    6.480000000000e+04-6.332993507385e-08 1.461162927209e+00 7.823109626770e-08
    9.858827065663e-01 3.801562500000e+02-5.259464250826e-01-8.057478240175e-09
    1.500062435378e-10 1.000000000000e+00 2.421000000000e+03 0.000000000000e+00
    2.000000000000e+00 0.000000000000e+00 3.725290298462e-09 7.600000000000e+01
    0.000000000000e+00 4.000000000000e+00                                      
 7 26  5 31 18  0  0.0-1.907972618937e-04-4.092726157978e-12 0.000000000000e+00
    3.200000000000e+01 6.062500000000e+00 4.837344302899e-09 2.757204470942e+00
    1.434236764908e-07 2.087582135573e-02 4.971399903297e-06 5.153589803696e+03
    6.480000000000e+04 1.471489667892e-07-1.707991954412e+00-1.993030309677e-07
    9.505436396723e-01 2.736562500000e+02-1.964858233718e+00-7.690320380505e-09
    1.246480557660e-10 1.000000000000e+00 2.421000000000e+03 0.000000000000e+00
    2.000000000000e+00 0.000000000000e+00-1.071020960808e-08 3.200000000000e+01
    0.000000000000e+00 4.000000000000e+00                                      
 8 26  5 31 18  0  0.0 4.315939731896e-04-7.958078640513e-12 0.000000000000e+00
    8.500000000000e+01 1.227812500000e+02 4.598405827775e-09-7.512414707827e-01
    6.580725312233e-06 1.161198515911e-02 8.385628461838e-06 5.153734968185e+03
    6.480000000000e+04 2.384185791016e-07 3.370763498858e-01 8.754432201385e-08
    9.428050678211e-01 2.065937500000e+02 5.415151006432e-01-8.106051935314e-09
    5.250218692682e-11 1.000000000000e+00 2.421000000000e+03 0.000000000000e+00
    2.000000000000e+00 0.000000000000e+00 4.656612873077e-09 8.500000000000e+01
    5.761800000000e+04 4.000000000000e+00                                      
 9 26  5 31 18  0  0.0 7.432573474944e-04-5.002220859751e-12 0.000000000000e+00
    7.600000000000e+01-4.650000000000e+01 4.159458999453e-09-1.438081650902e-01
   -2.430751919746e-06 3.462830325589e-03 1.023709774017e-05 5.153730337143e+03
    6.480000000000e+04-2.793967723846e-08-2.780713560087e+00 7.450580596924e-09
    9.661526200890e-01 1.856562500000e+02 2.039489420852e+00-7.684248792827e-09
    3.557291128331e-10 1.000000000000e+00 2.421000000000e+03 0.000000000000e+00
    2.000000000000e+00 0.000000000000e+00 4.656612873077e-10 7.600000000000e+01
    0.000000000000e+00 4.000000000000e+00                                      
11 26  5 31 18  0  0.0-3.220099024475e-04 1.250555214938e-11 0.000000000000e+00
    1.270000000000e+02 3.012500000000e+01 4.760912553081e-09-1.492732141988e+00
    1.655891537666e-06 2.310344483703e-03 2.980232238770e-07 5.153620119095e+03
    6.480000000000e+04 2.421438694000e-08 1.477974702779e+00 4.284083843231e-08
    9.627797819967e-01 3.743437500000e+02-2.355983253599e+00-8.362134096274e-09
    1.603638194458e-10 1.000000000000e+00 2.421000000000e+03 0.000000000000e+00
    2.000000000000e+00 0.000000000000e+00-8.847564458847e-09 1.270000000000e+02
    0.000000000000e+00 4.000000000000e+00                                      
